STARLINK-1180_new
1 15076C 20006AJ  21326.16180234  .00003346  00000-0  22412-3 0  3263
2 15076  53.0533 108.0148 0001388  78.3800  46.8083 15.06405329    16
STARLINK-1180_old
1 25076C 20006AJ  21325.05766463  .00003025  00000-0  20267-3 0  3253
2 25076  53.0524 112.9715 0001389  79.9854 174.1006 15.06397034    10
